ONEWEB-0176             
1 48210U 21031A   25161.57196109 -.00000007  00000+0 -52536-4 0  9998
2 48210  87.9039   3.6330 0001784  88.3039 271.8296 13.14502292199495
ONEWEB-0184             
1 48211U 21031B   25161.54500963  .00000246  00000+0  63003-3 0  9996
2 48211  87.9033   3.6093 0002377 107.8784 252.2605 13.14502490199463
ONEWEB-0179             
1 48212U 21031C   25161.51566440 -.00000169  00000+0 -49061-3 0  9990
2 48212  87.9037   3.6317 0001892  85.1828 274.9518 13.14501937199509
ONEWEB-0180             
1 48213U 21031D   25161.54816351  .00000267  00000+0  68499-3 0  9996
2 48213  87.9033   3.6133 0002047  90.5436 269.5928 13.14505344199398
ONEWEB-0218             
1 48214U 21031E   25161.57036535  .00000023  00000+0  26981-4 0  9999
2 48214  87.9034   3.6096 0002621 102.7814 257.3609 13.14504977199552
ONEWEB-0209             
1 48215U 21031F   25161.55927685  .00000169  00000+0  42185-3 0  9997
2 48215  87.9038   3.6548 0001941  83.8178 276.3173 13.14502588199558
ONEWEB-0198             
1 48216U 21031G   25161.54340501  .00000238  00000+0  60835-3 0  9992
2 48216  87.9035   3.6597 0002194  91.2125 268.9257 13.14505159199665
ONEWEB-0189             
1 48217U 21031H   25161.55610028  .00000196  00000+0  49411-3 0  9998
2 48217  87.9037   3.6310 0002213  90.3149 269.8234 13.14501350199405
