<?xml version="1.0" encoding="UTF-8"?>
<ndm xmlns:xsi="http://www.w3.org/2001/XMLSchema-instance" xsi:noNamespaceSchemaLocation="https://sanaregistry.org/r/ndmxml_unqualified/ndmxml-2.0.0-master-2.0.xsd">
<omm id="CCSDS_OMM_VERS" version="2.0">
<header><CREATION_DATE/><ORIGINATOR/></header><body><segment><metadata><OBJECT_NAME>ONEWEB-0176</OBJECT_NAME><OBJECT_ID>2021-031A</OBJECT_ID><CENTER_NAME>EARTH</CENTER_NAME><REF_FRAME>TEME</REF_FRAME><TIME_SYSTEM>UTC</TIME_SYSTEM><MEAN_ELEMENT_THEORY>SGP4</MEAN_ELEMENT_THEORY></metadata><data><meanElements><EPOCH>2025-06-10T13:43:37.438176</EPOCH><MEAN_MOTION>13.14502292</MEAN_MOTION><ECCENTRICITY>.0001784</ECCENTRICITY><INCLINATION>87.9039</INCLINATION><RA_OF_ASC_NODE>3.6330</RA_OF_ASC_NODE><ARG_OF_PERICENTER>88.3039</ARG_OF_PERICENTER><MEAN_ANOMALY>271.8296</MEAN_ANOMALY></meanElements><tleParameters><EPHEMERIS_TYPE>0</EPHEMERIS_TYPE><CLASSIFICATION_TYPE>U</CLASSIFICATION_TYPE><NORAD_CAT_ID>48210</NORAD_CAT_ID><ELEMENT_SET_NO>999</ELEMENT_SET_NO><REV_AT_EPOCH>19949</REV_AT_EPOCH><BSTAR>-.52536E-4</BSTAR><MEAN_MOTION_DOT>-.7E-7</MEAN_MOTION_DOT><MEAN_MOTION_DDOT>0</MEAN_MOTION_DDOT></tleParameters></data></segment></body></omm>
<omm id="CCSDS_OMM_VERS" version="2.0">
<header><CREATION_DATE/><ORIGINATOR/></header><body><segment><metadata><OBJECT_NAME>ONEWEB-0184</OBJECT_NAME><OBJECT_ID>2021-031B</OBJECT_ID><CENTER_NAME>EARTH</CENTER_NAME><REF_FRAME>TEME</REF_FRAME><TIME_SYSTEM>UTC</TIME_SYSTEM><MEAN_ELEMENT_THEORY>SGP4</MEAN_ELEMENT_THEORY></metadata><data><meanElements><EPOCH>2025-06-10T13:04:48.832032</EPOCH><MEAN_MOTION>13.14502490</MEAN_MOTION><ECCENTRICITY>.0002377</ECCENTRICITY><INCLINATION>87.9033</INCLINATION><RA_OF_ASC_NODE>3.6093</RA_OF_ASC_NODE><ARG_OF_PERICENTER>107.8784</ARG_OF_PERICENTER><MEAN_ANOMALY>252.2605</MEAN_ANOMALY></meanElements><tleParameters><EPHEMERIS_TYPE>0</EPHEMERIS_TYPE><CLASSIFICATION_TYPE>U</CLASSIFICATION_TYPE><NORAD_CAT_ID>48211</NORAD_CAT_ID><ELEMENT_SET_NO>999</ELEMENT_SET_NO><REV_AT_EPOCH>19946</REV_AT_EPOCH><BSTAR>.63003E-3</BSTAR><MEAN_MOTION_DOT>.246E-5</MEAN_MOTION_DOT><MEAN_MOTION_DDOT>0</MEAN_MOTION_DDOT></tleParameters></data></segment></body></omm>
<omm id="CCSDS_OMM_VERS" version="2.0">
<header><CREATION_DATE/><ORIGINATOR/></header><body><segment><metadata><OBJECT_NAME>ONEWEB-0179</OBJECT_NAME><OBJECT_ID>2021-031C</OBJECT_ID><CENTER_NAME>EARTH</CENTER_NAME><REF_FRAME>TEME</REF_FRAME><TIME_SYSTEM>UTC</TIME_SYSTEM><MEAN_ELEMENT_THEORY>SGP4</MEAN_ELEMENT_THEORY></metadata><data><meanElements><EPOCH>2025-06-10T12:22:33.404160</EPOCH><MEAN_MOTION>13.14501937</MEAN_MOTION><ECCENTRICITY>.0001892</ECCENTRICITY><INCLINATION>87.9037</INCLINATION><RA_OF_ASC_NODE>3.6317</RA_OF_ASC_NODE><ARG_OF_PERICENTER>85.1828</ARG_OF_PERICENTER><MEAN_ANOMALY>274.9518</MEAN_ANOMALY></meanElements><tleParameters><EPHEMERIS_TYPE>0</EPHEMERIS_TYPE><CLASSIFICATION_TYPE>U</CLASSIFICATION_TYPE><NORAD_CAT_ID>48212</NORAD_CAT_ID><ELEMENT_SET_NO>999</ELEMENT_SET_NO><REV_AT_EPOCH>19950</REV_AT_EPOCH><BSTAR>-.49061E-3</BSTAR><MEAN_MOTION_DOT>-.169E-5</MEAN_MOTION_DOT><MEAN_MOTION_DDOT>0</MEAN_MOTION_DDOT></tleParameters></data></segment></body></omm>
<omm id="CCSDS_OMM_VERS" version="2.0">
<header><CREATION_DATE/><ORIGINATOR/></header><body><segment><metadata><OBJECT_NAME>ONEWEB-0180</OBJECT_NAME><OBJECT_ID>2021-031D</OBJECT_ID><CENTER_NAME>EARTH</CENTER_NAME><REF_FRAME>TEME</REF_FRAME><TIME_SYSTEM>UTC</TIME_SYSTEM><MEAN_ELEMENT_THEORY>SGP4</MEAN_ELEMENT_THEORY></metadata><data><meanElements><EPOCH>2025-06-10T13:09:21.327264</EPOCH><MEAN_MOTION>13.14505344</MEAN_MOTION><ECCENTRICITY>.0002047</ECCENTRICITY><INCLINATION>87.9033</INCLINATION><RA_OF_ASC_NODE>3.6133</RA_OF_ASC_NODE><ARG_OF_PERICENTER>90.5436</ARG_OF_PERICENTER><MEAN_ANOMALY>269.5928</MEAN_ANOMALY></meanElements><tleParameters><EPHEMERIS_TYPE>0</EPHEMERIS_TYPE><CLASSIFICATION_TYPE>U</CLASSIFICATION_TYPE><NORAD_CAT_ID>48213</NORAD_CAT_ID><ELEMENT_SET_NO>999</ELEMENT_SET_NO><REV_AT_EPOCH>19939</REV_AT_EPOCH><BSTAR>.68499E-3</BSTAR><MEAN_MOTION_DOT>.267E-5</MEAN_MOTION_DOT><MEAN_MOTION_DDOT>0</MEAN_MOTION_DDOT></tleParameters></data></segment></body></omm>
<omm id="CCSDS_OMM_VERS" version="2.0">
<header><CREATION_DATE/><ORIGINATOR/></header><body><segment><metadata><OBJECT_NAME>ONEWEB-0218</OBJECT_NAME><OBJECT_ID>2021-031E</OBJECT_ID><CENTER_NAME>EARTH</CENTER_NAME><REF_FRAME>TEME</REF_FRAME><TIME_SYSTEM>UTC</TIME_SYSTEM><MEAN_ELEMENT_THEORY>SGP4</MEAN_ELEMENT_THEORY></metadata><data><meanElements><EPOCH>2025-06-10T13:41:19.566240</EPOCH><MEAN_MOTION>13.14504977</MEAN_MOTION><ECCENTRICITY>.0002621</ECCENTRICITY><INCLINATION>87.9034</INCLINATION><RA_OF_ASC_NODE>3.6096</RA_OF_ASC_NODE><ARG_OF_PERICENTER>102.7814</ARG_OF_PERICENTER><MEAN_ANOMALY>257.3609</MEAN_ANOMALY></meanElements><tleParameters><EPHEMERIS_TYPE>0</EPHEMERIS_TYPE><CLASSIFICATION_TYPE>U</CLASSIFICATION_TYPE><NORAD_CAT_ID>48214</NORAD_CAT_ID><ELEMENT_SET_NO>999</ELEMENT_SET_NO><REV_AT_EPOCH>19955</REV_AT_EPOCH><BSTAR>.26981E-4</BSTAR><MEAN_MOTION_DOT>.23E-6</MEAN_MOTION_DOT><MEAN_MOTION_DDOT>0</MEAN_MOTION_DDOT></tleParameters></data></segment></body></omm>
<omm id="CCSDS_OMM_VERS" version="2.0">
<header><CREATION_DATE/><ORIGINATOR/></header><body><segment><metadata><OBJECT_NAME>ONEWEB-0209</OBJECT_NAME><OBJECT_ID>2021-031F</OBJECT_ID><CENTER_NAME>EARTH</CENTER_NAME><REF_FRAME>TEME</REF_FRAME><TIME_SYSTEM>UTC</TIME_SYSTEM><MEAN_ELEMENT_THEORY>SGP4</MEAN_ELEMENT_THEORY></metadata><data><meanElements><EPOCH>2025-06-10T13:25:21.519840</EPOCH><MEAN_MOTION>13.14502588</MEAN_MOTION><ECCENTRICITY>.0001941</ECCENTRICITY><INCLINATION>87.9038</INCLINATION><RA_OF_ASC_NODE>3.6548</RA_OF_ASC_NODE><ARG_OF_PERICENTER>83.8178</ARG_OF_PERICENTER><MEAN_ANOMALY>276.3173</MEAN_ANOMALY></meanElements><tleParameters><EPHEMERIS_TYPE>0</EPHEMERIS_TYPE><CLASSIFICATION_TYPE>U</CLASSIFICATION_TYPE><NORAD_CAT_ID>48215</NORAD_CAT_ID><ELEMENT_SET_NO>999</ELEMENT_SET_NO><REV_AT_EPOCH>19955</REV_AT_EPOCH><BSTAR>.42185E-3</BSTAR><MEAN_MOTION_DOT>.169E-5</MEAN_MOTION_DOT><MEAN_MOTION_DDOT>0</MEAN_MOTION_DDOT></tleParameters></data></segment></body></omm>
<omm id="CCSDS_OMM_VERS" version="2.0">
<header><CREATION_DATE/><ORIGINATOR/></header><body><segment><metadata><OBJECT_NAME>ONEWEB-0198</OBJECT_NAME><OBJECT_ID>2021-031G</OBJECT_ID><CENTER_NAME>EARTH</CENTER_NAME><REF_FRAME>TEME</REF_FRAME><TIME_SYSTEM>UTC</TIME_SYSTEM><MEAN_ELEMENT_THEORY>SGP4</MEAN_ELEMENT_THEORY></metadata><data><meanElements><EPOCH>2025-06-10T13:02:30.192864</EPOCH><MEAN_MOTION>13.14505159</MEAN_MOTION><ECCENTRICITY>.0002194</ECCENTRICITY><INCLINATION>87.9035</INCLINATION><RA_OF_ASC_NODE>3.6597</RA_OF_ASC_NODE><ARG_OF_PERICENTER>91.2125</ARG_OF_PERICENTER><MEAN_ANOMALY>268.9257</MEAN_ANOMALY></meanElements><tleParameters><EPHEMERIS_TYPE>0</EPHEMERIS_TYPE><CLASSIFICATION_TYPE>U</CLASSIFICATION_TYPE><NORAD_CAT_ID>48216</NORAD_CAT_ID><ELEMENT_SET_NO>999</ELEMENT_SET_NO><REV_AT_EPOCH>19966</REV_AT_EPOCH><BSTAR>.60835E-3</BSTAR><MEAN_MOTION_DOT>.238E-5</MEAN_MOTION_DOT><MEAN_MOTION_DDOT>0</MEAN_MOTION_DDOT></tleParameters></data></segment></body></omm>
<omm id="CCSDS_OMM_VERS" version="2.0">
<header><CREATION_DATE/><ORIGINATOR/></header><body><segment><metadata><OBJECT_NAME>ONEWEB-0189</OBJECT_NAME><OBJECT_ID>2021-031H</OBJECT_ID><CENTER_NAME>EARTH</CENTER_NAME><REF_FRAME>TEME</REF_FRAME><TIME_SYSTEM>UTC</TIME_SYSTEM><MEAN_ELEMENT_THEORY>SGP4</MEAN_ELEMENT_THEORY></metadata><data><meanElements><EPOCH>2025-06-10T13:20:47.064192</EPOCH><MEAN_MOTION>13.14501350</MEAN_MOTION><ECCENTRICITY>.0002213</ECCENTRICITY><INCLINATION>87.9037</INCLINATION><RA_OF_ASC_NODE>3.6310</RA_OF_ASC_NODE><ARG_OF_PERICENTER>90.3149</ARG_OF_PERICENTER><MEAN_ANOMALY>269.8234</MEAN_ANOMALY></meanElements><tleParameters><EPHEMERIS_TYPE>0</EPHEMERIS_TYPE><CLASSIFICATION_TYPE>U</CLASSIFICATION_TYPE><NORAD_CAT_ID>48217</NORAD_CAT_ID><ELEMENT_SET_NO>999</ELEMENT_SET_NO><REV_AT_EPOCH>19940</REV_AT_EPOCH><BSTAR>.49411E-3</BSTAR><MEAN_MOTION_DOT>.196E-5</MEAN_MOTION_DOT><MEAN_MOTION_DDOT>0</MEAN_MOTION_DDOT></tleParameters></data></segment></body></omm>

</ndm>
